{
  "norad_id": 54082,
  "name": "STARLINK-5210",
  "history": [
    {
      "epoch": "2026-04-15T20:45:20.193120Z",
      "apogee_km": 540.4696406538587,
      "perigee_km": 539.0404041620295,
      "latitude_deg": 3.949136876749367e-05,
      "longitude_deg": 12.065933387122753,
      "height_km": 540.5218152913515,
      "semi_major_axis_km": 6917.892022407944,
      "eccentricity": 0.0001033,
      "inclination_deg": 53.217,
      "raan_deg": 167.4208,
      "arg_perigee_deg": 79.5729,
      "mean_anomaly_deg": 280.538,
      "mean_motion_rev_day": 15.08836194
    },
    {
      "epoch": "2026-04-16T20:36:07.023168Z",
      "apogee_km": 540.4682611917142,
      "perigee_km": 539.0127397656133,
      "latitude_deg": 2.4168780083199286e-05,
      "longitude_deg": 8.929764234226925,
      "height_km": 540.4307600573127,
      "semi_major_axis_km": 6917.877500478664,
      "eccentricity": 0.0001052,
      "inclination_deg": 53.217,
      "raan_deg": 162.9591,
      "arg_perigee_deg": 73.5667,
      "mean_anomaly_deg": 286.5441,
      "mean_motion_rev_day": 15.08840945
    },
    {
      "epoch": "2026-04-17T15:40:44.153184Z",
      "apogee_km": 540.4912423521582,
      "perigee_km": 538.9525721740047,
      "latitude_deg": 1.5953813557868434e-05,
      "longitude_deg": 78.42278699723633,
      "height_km": 540.2962317372297,
      "semi_major_axis_km": 6917.858907263081,
      "eccentricity": 0.00011121,
      "inclination_deg": 53.2176,
      "raan_deg": 159.3903,
      "arg_perigee_deg": 65.2667,
      "mean_anomaly_deg": 294.8441,
      "mean_motion_rev_day": 15.08847028
    },
    {
      "epoch": "2026-04-18T20:17:41.332128Z",
      "apogee_km": 540.4717405392503,
      "perigee_km": 539.0245189701063,
      "latitude_deg": -1.4790561389320737e-05,
      "longitude_deg": 2.656506375390476,
      "height_km": 540.464394109371,
      "semi_major_axis_km": 6917.885129754678,
      "eccentricity": 0.0001046,
      "inclination_deg": 53.2174,
      "raan_deg": 154.0375,
      "arg_perigee_deg": 75.6029,
      "mean_anomaly_deg": 284.5079,
      "mean_motion_rev_day": 15.08838449
    },
    {
      "epoch": "2026-04-19T20:08:28.127616Z",
      "apogee_km": 540.443395092595,
      "perigee_km": 539.030765205428,
      "latitude_deg": -2.5456883225894848e-06,
      "longitude_deg": -0.47720083639129696,
      "height_km": 540.4282416335158,
      "semi_major_axis_km": 6917.874080149011,
      "eccentricity": 0.0001021,
      "inclination_deg": 53.2165,
      "raan_deg": 149.5781,
      "arg_perigee_deg": 73.1299,
      "mean_anomaly_deg": 286.9805,
      "mean_motion_rev_day": 15.08842064
    },
    {
      "epoch": "2026-04-20T08:51:33.397056Z",
      "apogee_km": 540.3962345102445,
      "perigee_km": 539.1110287886977,
      "latitude_deg": -3.6319024778614554e-05,
      "longitude_deg": 165.84800197800013,
      "height_km": 540.6201175829657,
      "semi_major_axis_km": 6917.890631649471,
      "eccentricity": 9.289e-05,
      "inclination_deg": 53.2173,
      "raan_deg": 147.1976,
      "arg_perigee_deg": 87.342,
      "mean_anomaly_deg": 272.7678,
      "mean_motion_rev_day": 15.08836649
    },
    {
      "epoch": "2026-04-21T08:42:20.020608Z",
      "apogee_km": 540.493272300675,
      "perigee_km": 538.9699576316607,
      "latitude_deg": -5.426538954785445e-05,
      "longitude_deg": 162.71568939045304,
      "height_km": 540.404113661311,
      "semi_major_axis_km": 6917.868614966168,
      "eccentricity": 0.0001101,
      "inclination_deg": 53.2165,
      "raan_deg": 142.7389,
      "arg_perigee_deg": 72.9325,
      "mean_anomaly_deg": 287.1787,
      "mean_motion_rev_day": 15.08843852
    },
    {
      "epoch": "2026-04-22T18:05:26.282688Z",
      "apogee_km": 540.5275666183288,
      "perigee_km": 538.9696587783483,
      "latitude_deg": -2.5018220269102657e-05,
      "longitude_deg": 14.323939415614763,
      "height_km": 540.3956126592045,
      "semi_major_axis_km": 6917.885612698338,
      "eccentricity": 0.0001126,
      "inclination_deg": 53.2159,
      "raan_deg": 136.4943,
      "arg_perigee_deg": 71.3612,
      "mean_anomaly_deg": 288.7502,
      "mean_motion_rev_day": 15.08838291
    },
    {
      "epoch": "2026-04-23T02:02:21.938496Z",
      "apogee_km": 540.5281998084856,
      "perigee_km": 538.9632363799983,
      "latitude_deg": 5.7659295972111296e-06,
      "longitude_deg": -106.72148298401395,
      "height_km": 540.4113904548847,
      "semi_major_axis_km": 6917.882718094242,
      "eccentricity": 0.00011311,
      "inclination_deg": 53.2159,
      "raan_deg": 135.0072,
      "arg_perigee_deg": 72.8864,
      "mean_anomaly_deg": 287.2252,
      "mean_motion_rev_day": 15.08839238
    },
    {
      "epoch": "2026-04-24T11:25:28.191072Z",
      "apogee_km": 540.5312389338087,
      "perigee_km": 538.9857810768735,
      "latitude_deg": 1.6849755814701437e-06,
      "longitude_deg": 104.88678341424716,
      "height_km": 540.3689734784788,
      "semi_major_axis_km": 6917.895510005341,
      "eccentricity": 0.0001117,
      "inclination_deg": 53.2162,
      "raan_deg": 128.7626,
      "arg_perigee_deg": 68.3125,
      "mean_anomaly_deg": 291.7986,
      "mean_motion_rev_day": 15.08835053
    },
    {
      "epoch": "2026-04-25T17:37:47.656704Z",
      "apogee_km": 540.5192468139157,
      "perigee_km": 538.977941903493,
      "latitude_deg": 1.2214503640777258e-05,
      "longitude_deg": 4.915391937206281,
      "height_km": 540.3784953920912,
      "semi_major_axis_km": 6917.885594358704,
      "eccentricity": 0.0001114,
      "inclination_deg": 53.2159,
      "raan_deg": 123.1128,
      "arg_perigee_deg": 69.8022,
      "mean_anomaly_deg": 290.309,
      "mean_motion_rev_day": 15.08838297
    },
    {
      "epoch": "2026-04-26T17:28:33.587328Z",
      "apogee_km": 540.438778812465,
      "perigee_km": 539.0130072702086,
      "latitude_deg": 1.5067656539476036e-05,
      "longitude_deg": 1.7839926545094018,
      "height_km": 540.4802338628173,
      "semi_major_axis_km": 6917.862893041336,
      "eccentricity": 0.00010305,
      "inclination_deg": 53.2163,
      "raan_deg": 118.6521,
      "arg_perigee_deg": 78.5327,
      "mean_anomaly_deg": 281.5781,
      "mean_motion_rev_day": 15.08845724
    }
  ]
}